KUIPER-00157            
1 65970U 25228Z   25311.96005554  .00019135  00000+0  57009-3 0  9994
2 65970  51.8785 188.2007 0005503 239.9105 120.1335 15.34690449  5073
